STARLINK-31727          
1 59638U 24082H   26067.61913985 -.00000502  00000+0 -87427-5 0  9991
2 59638  43.0027 146.2440 0001098 232.1445 127.9307 15.27561531104694
FLOCK 4G-24             
1 62637U 25009AE  26068.72509072  .00010513  00000+0  38996-3 0  9991
2 62637  97.4061 151.5140 0001802 280.2808  79.8228 15.27784978 63732
